<?xml version="1.0" encoding="UTF-8"?>
<kml xmlns="http://www.opengis.net/kml/2.2">
  <Document>
    <name>DC EV Charging Station Thailand - Piyamate Wisanuvej</name>
    <description><![CDATA[Listing DC charging stations only<br>Contact: buk.piyamate@icloud.com<br>รวมรวมโดย ปิยเมษฐ์ วิษณุเวช<br>แสดงเฉพาะสถานีชาร์จเร็วแบบ DC เท่านั้น]]></description>
    <NetworkLink>
      <name>DC EV Charging Station Thailand - Piyamate Wisanuvej</name>
      <Link>
        <href><![CDATA[https://www.google.com/maps/d/u/0/kml?forcekml=1&mid=1YKD1Z5CdoyMnSTCOf2TgLmKV-REwfmIC]]></href>
      </Link>
    </NetworkLink>
  </Document>
</kml>
